{
  "type": "FeatureCollection",
  "features": [
    {
      "type": "Feature",
      "properties": {
        "norad_id": 33901,
        "name": "COSMOS 2251 DEB",
        "group": "cosmos-2251-debris",
        "lat": -18.457988604210414,
        "lon": 35.24115631359968,
        "alt_km": 542.6469060292984,
        "timestamp": "2025-12-16T17:51:11.325191+00:00",
        "meta_object_name": "COSMOS 2251 DEB",
        "meta_object_id": "1993-036DE",
        "meta_epoch": "2025-12-15T13:26:10.413600",
        "meta_mean_motion": 15.16282507,
        "meta_eccentricity": 0.00312108,
        "meta_inclination": 73.7747,
        "meta_ra_of_asc_node": 43.3252,
        "meta_arg_of_pericenter": 175.2657,
        "meta_mean_anomaly": 184.8839,
        "meta_ephemeris_type": 0,
        "meta_classification_type": "U",
        "meta_norad_cat_id": 33901,
        "meta_element_set_no": 999,
        "meta_rev_at_epoch": 89556,
        "meta_bstar": 0.0017024607,
        "meta_mean_motion_dot": 0.00033492,
        "meta_mean_motion_ddot": 0,
        "tle_line1": "1 33901U 93036DE  25349.55984275  .00033492  00000+0  17025-2 0  9992",
        "tle_line2": "2 33901  73.7747  43.3252 0031210 175.2657 184.8839 15.16282507895563"
      },
      "geometry": {
        "type": "Point",
        "coordinates": [
          35.24115631359968,
          -18.457988604210414
        ]
      }
    },
    {
      "type": "Feature",
      "properties": {
        "norad_id": 33905,
        "name": "COSMOS 2251 DEB",
        "group": "cosmos-2251-debris",
        "lat": -24.48440428525129,
        "lon": -58.331169450643976,
        "alt_km": 809.3063063773725,
        "timestamp": "2025-12-16T17:51:11.325201+00:00",
        "meta_object_name": "COSMOS 2251 DEB",
        "meta_object_id": "1993-036DJ",
        "meta_epoch": "2025-12-15T22:11:28.020768",
        "meta_mean_motion": 14.35398798,
        "meta_eccentricity": 0.00586866,
        "meta_inclination": 73.887,
        "meta_ra_of_asc_node": 310.7489,
        "meta_arg_of_pericenter": 199.6032,
        "meta_mean_anomaly": 222.7358,
        "meta_ephemeris_type": 0,
        "meta_classification_type": "U",
        "meta_norad_cat_id": 33905,
        "meta_element_set_no": 999,
        "meta_rev_at_epoch": 87733,
        "meta_bstar": 0.00049785438,
        "meta_mean_motion_dot": 1.43e-05,
        "meta_mean_motion_ddot": 0,
        "tle_line1": "1 33905U 93036DJ  25349.92462987  .00001430  00000+0  49785-3 0  9994",
        "tle_line2": "2 33905  73.8870 310.7489 0058686 199.6032 222.7358 14.35398798877334"
      },
      "geometry": {
        "type": "Point",
        "coordinates": [
          -58.331169450643976,
          -24.48440428525129
        ]
      }
    },
    {
      "type": "Feature",
      "properties": {
        "norad_id": 33906,
        "name": "COSMOS 2251 DEB",
        "group": "cosmos-2251-debris",
        "lat": 7.781171832254578,
        "lon": 131.62271622232146,
        "alt_km": 729.6138495650694,
        "timestamp": "2025-12-16T17:51:11.325212+00:00",
        "meta_object_name": "COSMOS 2251 DEB",
        "meta_object_id": "1993-036DK",
        "meta_epoch": "2025-12-15T23:13:46.255008",
        "meta_mean_motion": 14.57150474,
        "meta_eccentricity": 0.00367535,
        "meta_inclination": 74.03,
        "meta_ra_of_asc_node": 315.3393,
        "meta_arg_of_pericenter": 344.2749,
        "meta_mean_anomaly": 78.6229,
        "meta_ephemeris_type": 0,
        "meta_classification_type": "U",
        "meta_norad_cat_id": 33906,
        "meta_element_set_no": 999,
        "meta_rev_at_epoch": 88055,
        "meta_bstar": 0.0014093892,
        "meta_mean_motion_dot": 6.392e-05,
        "meta_mean_motion_ddot": 0,
        "tle_line1": "1 33906U 93036DK  25349.96789647  .00006392  00000+0  14094-2 0  9990",
        "tle_line2": "2 33906  74.0300 315.3393 0036753 344.2749  78.6229 14.57150474880559"
      },
      "geometry": {
        "type": "Point",
        "coordinates": [
          131.62271622232146,
          7.781171832254578
        ]
      }
    },
    {
      "type": "Feature",
      "properties": {
        "norad_id": 33907,
        "name": "COSMOS 2251 DEB",
        "group": "cosmos-2251-debris",
        "lat": 54.45477806044781,
        "lon": -177.18018903290476,
        "alt_km": 723.7845245873532,
        "timestamp": "2025-12-16T17:51:11.325223+00:00",
        "meta_object_name": "COSMOS 2251 DEB",
        "meta_object_id": "1993-036DL",
        "meta_epoch": "2025-12-15T02:50:05.464320",
        "meta_mean_motion": 14.30529257,
        "meta_eccentricity": 0.01120215,
        "meta_inclination": 74.0706,
        "meta_ra_of_asc_node": 29.3321,
        "meta_arg_of_pericenter": 84.1107,
        "meta_mean_anomaly": 308.0001,
        "meta_ephemeris_type": 0,
        "meta_classification_type": "U",
        "meta_norad_cat_id": 33907,
        "meta_element_set_no": 999,
        "meta_rev_at_epoch": 86614,
        "meta_bstar": 0.0010283551,
        "meta_mean_motion_dot": 2.846e-05,
        "meta_mean_motion_ddot": 0,
        "tle_line1": "1 33907U 93036DL  25349.11811880  .00002846  00000+0  10284-2 0  9990",
        "tle_line2": "2 33907  74.0706  29.3321 0112021  84.1107 308.0001 14.30529257866141"
      },
      "geometry": {
        "type": "Point",
        "coordinates": [
          -177.18018903290476,
          54.45477806044781
        ]
      }
    },
    {
      "type": "Feature",
      "properties": {
        "norad_id": 33908,
        "name": "COSMOS 2251 DEB",
        "group": "cosmos-2251-debris",
        "lat": 3.939290808250038,
        "lon": 17.516835433374943,
        "alt_km": 755.7415058850047,
        "timestamp": "2025-12-16T17:51:11.325233+00:00",
        "meta_object_name": "COSMOS 2251 DEB",
        "meta_object_id": "1993-036DM",
        "meta_epoch": "2025-12-15T20:31:55.604352",
        "meta_mean_motion": 14.07365366,
        "meta_eccentricity": 0.02228522,
        "meta_inclination": 73.8377,
        "meta_ra_of_asc_node": 200.2369,
        "meta_arg_of_pericenter": 223.1874,
        "meta_mean_anomaly": 135.1601,
        "meta_ephemeris_type": 0,
        "meta_classification_type": "U",
        "meta_norad_cat_id": 33908,
        "meta_element_set_no": 999,
        "meta_rev_at_epoch": 85517,
        "meta_bstar": 0.001312123,
        "meta_mean_motion_dot": 2.74e-05,
        "meta_mean_motion_ddot": 0,
        "tle_line1": "1 33908U 93036DM  25349.85550468  .00002740  00000+0  13121-2 0  9990",
        "tle_line2": "2 33908  73.8377 200.2369 0222852 223.1874 135.1601 14.07365366855174"
      },
      "geometry": {
        "type": "Point",
        "coordinates": [
          17.516835433374943,
          3.939290808250038
        ]
      }
    },
    {
      "type": "Feature",
      "properties": {
        "norad_id": 33911,
        "name": "COSMOS 2251 DEB",
        "group": "cosmos-2251-debris",
        "lat": -18.761308595482152,
        "lon": -20.38428598391679,
        "alt_km": 652.9890518376615,
        "timestamp": "2025-12-16T17:51:11.325243+00:00",
        "meta_object_name": "COSMOS 2251 DEB",
        "meta_object_id": "1993-036DQ",
        "meta_epoch": "2025-12-15T21:58:39.324288",
        "meta_mean_motion": 14.74936965,
        "meta_eccentricity": 0.00141468,
        "meta_inclination": 74.0899,
        "meta_ra_of_asc_node": 155.6679,
        "meta_arg_of_pericenter": 93.9406,
        "meta_mean_anomaly": 29.866,
        "meta_ephemeris_type": 0,
        "meta_classification_type": "U",
        "meta_norad_cat_id": 33911,
        "meta_element_set_no": 999,
        "meta_rev_at_epoch": 88691,
        "meta_bstar": 0.0014911198,
        "meta_mean_motion_dot": 0.00010016,
        "meta_mean_motion_ddot": 0,
        "tle_line1": "1 33911U 93036DQ  25349.91573292  .00010016  00000+0  14911-2 0  9994",
        "tle_line2": "2 33911  74.0899 155.6679 0014146  93.9406  29.8660 14.74936965886919"
      },
      "geometry": {
        "type": "Point",
        "coordinates": [
          -20.38428598391679,
          -18.761308595482152
        ]
      }
    },
    {
      "type": "Feature",
      "properties": {
        "norad_id": 33912,
        "name": "COSMOS 2251 DEB",
        "group": "cosmos-2251-debris",
        "lat": 60.76161607539094,
        "lon": -28.579203141566452,
        "alt_km": 719.8498506590131,
        "timestamp": "2025-12-16T17:51:11.325254+00:00",
        "meta_object_name": "COSMOS 2251 DEB",
        "meta_object_id": "1993-036DR",
        "meta_epoch": "2025-12-15T13:21:21.140352",
        "meta_mean_motion": 14.51911557,
        "meta_eccentricity": 0.0011398,
        "meta_inclination": 74.0333,
        "meta_ra_of_asc_node": 184.419,
        "meta_arg_of_pericenter": 263.3662,
        "meta_mean_anomaly": 127.6731,
        "meta_ephemeris_type": 0,
        "meta_classification_type": "U",
        "meta_norad_cat_id": 33912,
        "meta_element_set_no": 999,
        "meta_rev_at_epoch": 88474,
        "meta_bstar": 0.00051181466,
        "meta_mean_motion_dot": 2.038e-05,
        "meta_mean_motion_ddot": 0,
        "tle_line1": "1 33912U 93036DR  25349.55649468  .00002038  00000+0  51181-3 0  9990",
        "tle_line2": "2 33912  74.0333 184.4190 0011398 263.3662 127.6731 14.51911557884744"
      },
      "geometry": {
        "type": "Point",
        "coordinates": [
          -28.579203141566452,
          60.76161607539094
        ]
      }
    }
  ]
}